[Satellite]
VERSION=1.1
NAME=SL-8 R/B
NICKNAME=SL-8 R/B
TLE1=1 20775U 90078B   19317.80876748  .00002691  00000-0  12912-3 0  9990
TLE2=2 20775  82.9303  45.2017 0576799 145.4839 218.5268 14.33784832474688
STATUS=0
